[{"OBJECT_NAME":"STARLINK-4112","OBJECT_ID":"2022-062AH","EPOCH":"2026-03-09T06:18:04.351104","MEAN_MOTION":15.08828528,"ECCENTRICITY":0.00012471,"INCLINATION":53.219,"RA_OF_ASC_NODE":26.0484,"ARG_OF_PERICENTER":90.2901,"MEAN_ANOMALY":269.8234,"EPHEMERIS_TYPE":0,"CLASSIFICATION_TYPE":"U","NORAD_CAT_ID":52861,"ELEMENT_SET_NO":999,"REV_AT_EPOCH":20586,"BSTAR":-5.3180629e-5,"MEAN_MOTION_DOT":-1.134e-5,"MEAN_MOTION_DDOT":0},{"OBJECT_NAME":"JILIN-01 KUANFU 02B 5","OBJECT_ID":"2024-169E","EPOCH":"2026-03-09T22:46:28.718400","MEAN_MOTION":15.09244096,"ECCENTRICITY":0.00111722,"INCLINATION":97.556,"RA_OF_ASC_NODE":160.0628,"ARG_OF_PERICENTER":294.0678,"MEAN_ANOMALY":65.9381,"EPHEMERIS_TYPE":0,"CLASSIFICATION_TYPE":"U","NORAD_CAT_ID":61193,"ELEMENT_SET_NO":999,"REV_AT_EPOCH":8086,"BSTAR":0.00034816655,"MEAN_MOTION_DOT":5.486e-5,"MEAN_MOTION_DDOT":0}]
